NORAD_CAT_ID,OBJECT_NAME,OBJECT_TYPE,EPOCH,MEAN_MOTION,ECCENTRICITY,INCLINATION,RA_OF_ASC_NODE,ARG_OF_PERICENTER,MEAN_ANOMALY,BSTAR,MEAN_MOTION_DOT,MEAN_MOTION_DDOT,TLE_LINE0,TLE_LINE1,TLE_LINE2,SEMIMAJOR_AXIS,PERIOD,APOGEE,PERIGEE,DECAYED
53403.0,STARLINK-4507,PAYLOAD,2022-09-29 14:00:01,15.08823673,0.0001597,53.2182,7.477,56.4569,2.8013,0.0004978,7.64e-05,0.0,0 STARLINK-4507,1 53403U 22097R   22272.58334491  .00007640  00000-0  49780-3 0  9995,2 53403  53.2182   7.4770 0001597  56.4569   2.8013 15.08823673  1301,6917.93,95.439,540.9,538.691,0.0
53403.0,STARLINK-4507,PAYLOAD,2022-09-29 22:00:00,15.08848864,0.0001521999999999,53.2178,5.9798,56.6468,14.1843,-0.0013360999999999,-0.00021494,0.0,0 STARLINK-4507,1 53403U 22097R   22272.91667824 -.00021494  00000-0 -13361-2 0  9991,2 53403  53.2178   5.9798 0001522  56.6468  14.1843 15.08848864  1303,6917.853,95.437,540.771,538.665,0.0
53403.0,STARLINK-4507,PAYLOAD,2022-09-30 14:00:01,15.08867335,0.0001565999999999,53.2176,2.9881,55.0436,38.9944,-0.0011162,-0.00018022,0.0,0 STARLINK-4507,1 53403U 22097R   22273.58334491 -.00018022  00000-0 -11162-2 0  9996,2 53403  53.2176   2.9881 0001566  55.0436  38.9944 15.08867335  1307,6917.797,95.436,540.745,538.5790000000002,0.0
53403.0,STARLINK-4507,PAYLOAD,2022-09-30 16:00:00,15.08854606,0.0001551,53.2176,2.6142,52.4498,134.4979,0.0002989,4.474e-05,0.0,0 STARLINK-4507,1 53403U 22097R   22273.66667824  .00004474  00000-0  29890-3 0  9996,2 53403  53.2176   2.6142 0001551  52.4498 134.4979 15.08854606  8402,6917.8359999999975,95.437,540.774,538.628,0.0
53403.0,STARLINK-4507,PAYLOAD,2022-09-30 22:00:00,15.0886172,0.0001433,53.2173,1.4906,54.1427,51.5217,-0.00094338,-0.00015279,0.0,0 STARLINK-4507,1 53403U 22097R   22273.91667824 -.00015279  00000-0 -94338-3 0  9990,2 53403  53.2173   1.4906 0001433  54.1427  51.5217 15.08861720  1305,6917.814,95.436,540.67,538.688,0.0
53403.0,STARLINK-4507,PAYLOAD,2022-10-01 14:00:01,15.08848538,0.0001652,53.2173,358.4987,52.3064,76.605,0.001032,0.00016178,0.0,0 STARLINK-4507,1 53403U 22097R   22274.58334491  .00016178  00000-0  10320-2 0  9990,2 53403  53.2173 358.4987 0001652  52.3064  76.6050 15.08848538  1304,6917.854,95.437,540.862,538.576,0.0
53403.0,STARLINK-4507,PAYLOAD,2022-10-01 22:00:00,15.08870964,0.0001411,53.2172,357.0013,51.7747,88.7206,-0.0065691,-0.00103424,0.0,0 STARLINK-4507,1 53403U 22097R   22274.91667824 -.00103424  00000-0 -65691-2 0  9990,2 53403  53.2172 357.0013 0001411  51.7747  88.7206 15.08870964  8595,6917.786,95.436,540.627,538.675,0.0
53403.0,STARLINK-4507,PAYLOAD,2022-10-02 06:00:00,15.08802408,0.0001308,53.2174,355.5042,54.59,97.4926,0.0014968,0.00023589,0.0,0 STARLINK-4507,1 53403U 22097R   22275.25001157  .00023589  00000-0  14968-2 0  9991,2 53403  53.2174 355.5042 0001308  54.5900  97.4926 15.08802408  8649,6917.995,95.44,540.765,538.955,0.0
53403.0,STARLINK-4507,PAYLOAD,2022-10-02 14:00:01,15.08803978,0.00015,53.2174,354.0096,45.7725,117.8751,0.0024214,0.00038421,0.0,0 STARLINK-4507,1 53403U 22097R   22275.58334491  .00038421  00000-0  24214-2 0  9993,2 53403  53.2174 354.0096 0001500  45.7725 117.8751 15.08803978  1305,6917.99,95.44,540.893,538.818,0.0
53403.0,STARLINK-4507,PAYLOAD,2022-10-02 22:00:00,15.08847493,0.0001406,53.2175,352.5119,46.8303,128.3861,-0.00030055,-5.069e-05,0.0,0 STARLINK-4507,1 53403U 22097R   22275.91667824 -.00005069  00000-0 -30055-3 0  9994,2 53403  53.2175 352.5119 0001406  46.8303 128.3861 15.08847493  1303,6917.857,95.437,540.695,538.75,0.0
53403.0,STARLINK-4507,PAYLOAD,2022-10-03 14:00:01,15.08858199,0.0001712,53.2179,349.5203,47.1466,151.3021,2.453e-05,1.02e-06,0.0,0 STARLINK-4507,1 53403U 22097R   22276.58334491  .00000102  00000-0  24530-4 0  9992,2 53403  53.2179 349.5203 0001712  47.1466 151.3021 15.08858199  8846,6917.825,95.436,540.874,538.505,0.0
53403.0,STARLINK-4507,PAYLOAD,2022-10-03 22:00:00,15.08867902,0.0001610999999999,53.218,348.0225,50.3399,159.7261,-0.0035684,-0.00056676,0.0,0 STARLINK-4507,1 53403U 22097R   22276.91667824 -.00056676  00000-0 -35684-2 0  9997,2 53403  53.2180 348.0225 0001611  50.3399 159.7261 15.08867902  1309,6917.795,95.436,540.775,538.5459999999998,0.0
53403.0,STARLINK-4507,PAYLOAD,2022-10-04 14:00:01,15.08832774,0.0001754,53.2183,345.0312,46.2571,187.0206,-0.00019967,-3.464e-05,0.0,0 STARLINK-4507,1 53403U 22097R   22277.58334491 -.00003464  00000-0 -19967-3 0  9996,2 53403  53.2183 345.0312 0001754  46.2571 187.0206 15.08832774  1302,6917.901999999999,95.438,540.981,538.554,0.0
53403.0,STARLINK-4507,PAYLOAD,2022-10-04 16:00:00,15.08824672,0.0001738,53.2181,344.6571,44.9545,281.2226,0.00073618,0.00011443,0.0,0 STARLINK-4507,1 53403U 22097R   22277.66667824  .00011443  00000-0  73618-3 0  9991,2 53403  53.2181 344.6571 0001738  44.9545 281.2226 15.08824672  9013,6917.927,95.439,540.995,538.59,0.0
53403.0,STARLINK-4507,PAYLOAD,2022-10-04 22:00:00,15.08820419,0.0001669,53.2183,343.5337,50.2264,194.6344,0.00056165,8.657e-05,0.0,0 STARLINK-4507,1 53403U 22097R   22277.91667824  .00008657  00000-0  56165-3 0  9990,2 53403  53.2183 343.5337 0001669  50.2264 194.6344 15.08820419  1301,6917.94,95.439,540.96,538.651,0.0
53403.0,STARLINK-4507,PAYLOAD,2022-10-05 14:00:01,15.08814252,0.0001867,53.2185,340.5423,49.5421,218.5479,0.0013549,0.00021326,0.0,0 STARLINK-4507,1 53403U 22097R   22278.58335648  .00021326  00000-0  13549-2 0  9996,2 53403  53.2185 340.5423 0001867  49.5421 218.5479 15.08814252  9145,6917.959,95.439,541.116,538.533,0.0
53403.0,STARLINK-4507,PAYLOAD,2022-10-05 22:00:00,15.08815992,0.0001647,53.2184,339.0446,51.6999,227.9032,0.00031341,4.7e-05,0.0,0 STARLINK-4507,1 53403U 22097R   22278.91667824  .00004700  00000-0  31341-3 0  9995,2 53403  53.2184 339.0446 0001647  51.6999 227.9032 15.08815992  1303,6917.954000000002,95.439,540.9580000000002,538.679,0.0
53403.0,STARLINK-4507,PAYLOAD,2022-10-06 14:00:01,15.08858911,0.0001778,53.2182,336.0569,47.871,254.9154,-0.0042351,-0.00067098,0.0,0 STARLINK-4507,1 53403U 22097R   22279.58334491 -.00067098  00000-0 -42351-2 0  9993,2 53403  53.2182 336.0569 0001778  47.8710 254.9154 15.08858911  1300,6917.823,95.436,540.918,538.4580000000002,0.0
53403.0,STARLINK-4507,PAYLOAD,2022-10-06 22:42:55,15.08726417,0.0001641,53.218,334.4274,46.8618,69.4393,0.0101219999999999,0.00164069,0.0,0 STARLINK-4507,1 53403U 22097R   22279.94646991  .00164069  00000-0  10122-1 0  9998,2 53403  53.2180 334.4274 0001641  46.8618  69.4393 15.08726417  1307,6918.228,95.445,541.2280000000002,538.957,0.0
53403.0,STARLINK-4507,PAYLOAD,2022-10-07 00:00:00,15.08758706,0.0001648,53.2178,334.1872,46.9913,0.2734,0.0076956,0.00124075,0.0,0 STARLINK-4507,1 53403U 22097R   22280.00001157  .00124075  00000-0  76956-2 0  9997,2 53403  53.2178 334.1872 0001648  46.9913   0.2734 15.08758706  9363,6918.129,95.443,541.134,538.854,0.0
53403.0,STARLINK-4507,PAYLOAD,2022-10-07 14:00:01,15.08822984,0.0001724,53.2174,331.5649,47.5396,290.0394,0.0023826,0.00037817,0.0,0 STARLINK-4507,1 53403U 22097R   22280.58334491  .00037817  00000-0  23826-2 0  9995,2 53403  53.2174 331.5649 0001724  47.5396 290.0394 15.08822984  9450,6917.932,95.439,540.99,538.605,0.0
53403.0,STARLINK-4507,PAYLOAD,2022-10-07 22:00:00,15.08866787,0.0001676999999999,53.2175,330.0694,53.9871,295.1823,-0.0069956,-0.00110009,0.0,0 STARLINK-4507,1 53403U 22097R   22280.91667824 -.00110009  00000-0 -69956-2 0  9992,2 53403  53.2175 330.0694 0001677  53.9871 295.1823 15.08866787  1309,6917.799,95.436,540.8240000000002,538.503,0.0
53403.0,STARLINK-4507,PAYLOAD,2022-10-08 06:00:00,15.08734618,0.0001691,53.2175,328.5757,49.2283,311.5202,0.0099916,0.00161939,0.0,0 STARLINK-4507,1 53403U 22097R   22281.25001157  .00161939  00000-0  99916-2 0  9996,2 53403  53.2175 328.5757 0001691  49.2283 311.5202 15.08734618  9558,6918.203,95.444,541.237,538.898,0.0
53403.0,STARLINK-4507,PAYLOAD,2022-10-08 14:00:01,15.08800777,0.0001807,53.2167,327.0759,49.0636,323.2808,0.0037858,0.00060415,0.0,0 STARLINK-4507,1 53403U 22097R   22281.58334491  .00060415  00000-0  37858-2 0  9996,2 53403  53.2167 327.0759 0001807  49.0636 323.2808 15.08800777  1301,6918.0,95.44,541.115,538.615,0.0
53403.0,STARLINK-4507,PAYLOAD,2022-10-08 22:00:00,15.08828151,0.0001626999999999,53.2165,325.5778,53.1825,330.7457,2.2379e-05,6.8e-07,0.0,0 STARLINK-4507,1 53403U 22097R   22281.91667824  .00000068  00000-0  22379-4 0  9994,2 53403  53.2165 325.5778 0001627  53.1825 330.7457 15.08828151  1308,6917.917,95.438,540.9069999999998,538.656,0.0
53403.0,STARLINK-4507,PAYLOAD,2022-10-09 14:00:01,15.08842882,0.0001759,53.2162,322.5867,45.5053,1.5972,0.00098721,0.0001546,0.0,0 STARLINK-4507,1 53403U 22097R   22282.58334491  .00015460  00000-0  98721-3 0  9994,2 53403  53.2162 322.5867 0001759  45.5053   1.5972 15.08842882  1307,6917.871999999999,95.437,540.953,538.52,0.0
53403.0,STARLINK-4507,PAYLOAD,2022-10-09 22:00:00,15.08831084,0.000153,53.2163,321.0883,47.9881,10.7285,-2.3295e-05,-6.59e-06,0.0,0 STARLINK-4507,1 53403U 22097R   22282.91667824 -.00000659  00000-0 -23295-4 0  9991,2 53403  53.2163 321.0883 0001530  47.9881  10.7285 15.08831084  1303,6917.908,95.438,540.831,538.714,0.0
53403.0,STARLINK-4507,PAYLOAD,2022-10-10 14:00:01,15.0890064,0.0001761999999999,53.2168,318.101,44.0835,37.802,-0.011518,-0.00179369,0.0,0 STARLINK-4507,1 53403U 22097R   22283.58334491 -.00179369  00000-0 -11518-1 0  9993,2 53403  53.2168 318.1010 0001762  44.0835  37.8020 15.08900640  1303,6917.695,95.434,540.779,538.341,0.0
53403.0,STARLINK-4507,PAYLOAD,2022-10-10 22:00:01,15.08896274,0.0001764999999999,53.217,316.6021,51.2396,42.3458,-0.014971,-0.00231352,0.0,0 STARLINK-4507,1 53403U 22097R   22283.91668981 -.00231352  00000-0 -14971-1 0  9991,2 53403  53.2170 316.6021 0001765  51.2396  42.3458 15.08896274  1309,6917.708000000001,95.434,540.794,538.352,0.0
